start=new Date('2022-05-20T00:00:00.000Z').valueOf();
sats=[{"LAUNCH_DATE":"2021-11-13","APOAPSIS":"541.440","MEAN_MOTION_DDOT":"0.0000000000000","COUNTRY_CODE":"US","OBJECT_TYPE":"PAYLOAD","TIME_SYSTEM":"UTC","CENTER_NAME":"EARTH","RCS_SIZE":"LARGE","ELEMENT_SET_NO":"999","INCLINATION":"53.2165","EPOCH":"2022-05-20T00:00:00.999648","FILE":"3454127","MEAN_MOTION":"15.08802843","SEMIMAJOR_AXIS":"6917.994","MEAN_ELEMENT_THEORY":"SGP4","ECCENTRICITY":"0.00022850","GP_ID":"203997917","TLE_LINE2":"2 49440  53.2165 327.6938 0002285  27.3731 128.8449 15.08802843 30191","TLE_LINE1":"1 49440U 21104AJ  22140.00001157  .00060301  00000-0  37785-2 0  9994","SITE":"AFETR","NORAD_CAT_ID":"49440","OBJECT_ID":"2021-104AJ","EPHEMERIS_TYPE":"0","PERIOD":"95.440","MEAN_ANOMALY":"128.8449","MEAN_MOTION_DOT":"0.00060301","ARG_OF_PERICENTER":"27.3731","BSTAR":"0.00377850000000","REV_AT_EPOCH":"3019","OBJECT_NAME":"STARLINK-3105","RA_OF_ASC_NODE":"327.6938","DECAY_DATE":null,"CLASSIFICATION_TYPE":"U","PERIAPSIS":"538.278","REF_FRAME":"TEME"},{"MEAN_MOTION_DOT":"0.00045262","MEAN_ANOMALY":"125.9195","PERIOD":"95.439","EPHEMERIS_TYPE":"0","OBJECT_ID":"2021-104AK","SITE":"AFETR","NORAD_CAT_ID":"49441","TLE_LINE1":"1 49441U 21104AK  22139.91667824  .00045262  00000-0  28457-2 0  9997","TLE_LINE2":"2 49441  53.2189 328.0497 0002244  37.3891 125.9195 15.08815242  1300","REF_FRAME":"TEME","CLASSIFICATION_TYPE":"U","PERIAPSIS":"538.269","DECAY_DATE":null,"RA_OF_ASC_NODE":"328.0497","OBJECT_NAME":"STARLINK-3128","REV_AT_EPOCH":"130","BSTAR":"0.00284570000000","ARG_OF_PERICENTER":"37.3891","OBJECT_TYPE":"PAYLOAD","COUNTRY_CODE":"US","MEAN_MOTION_DDOT":"0.0000000000000","LAUNCH_DATE":"2021-11-13","APOAPSIS":"541.373","GP_ID":"203989016","ECCENTRICITY":"0.00022440","MEAN_ELEMENT_THEORY":"SGP4","SEMIMAJOR_AXIS":"6917.956","MEAN_MOTION":"15.08815242","FILE":"3453812","INCLINATION":"53.2189","EPOCH":"2022-05-19T22:00:00.999936","ELEMENT_SET_NO":"999","RCS_SIZE":"LARGE","CENTER_NAME":"EARTH","TIME_SYSTEM":"UTC"},{"PERIAPSIS":"538.347","CLASSIFICATION_TYPE":"U","REF_FRAME":"TEME","RA_OF_ASC_NODE":"328.0645","DECAY_DATE":null,"REV_AT_EPOCH":"130","OBJECT_NAME":"STARLINK-3098","BSTAR":"0.00219370000000","ARG_OF_PERICENTER":"35.8463","MEAN_MOTION_DOT":"0.00034779","PERIOD":"95.439","MEAN_ANOMALY":"47.4740","EPHEMERIS_TYPE":"0","TLE_LINE1":"1 49442U 21104AL  22139.91667824  .00034779  00000-0  21937-2 0  9995","TLE_LINE2":"2 49442  53.2160 328.0645 0002110  35.8463  47.4740 15.08819960  1300","SITE":"AFETR","NORAD_CAT_ID":"49442","OBJECT_ID":"2021-104AL","ECCENTRICITY":"0.00021100","GP_ID":"203989266","INCLINATION":"53.2160","EPOCH":"2022-05-19T22:00:00.999936","FILE":"3453812","MEAN_MOTION":"15.08819960","SEMIMAJOR_AXIS":"6917.942","MEAN_ELEMENT_THEORY":"SGP4","RCS_SIZE":"LARGE","ELEMENT_SET_NO":"999","TIME_SYSTEM":"UTC","CENTER_NAME":"EARTH","COUNTRY_CODE":"US","OBJECT_TYPE":"PAYLOAD","MEAN_MOTION_DDOT":"0.0000000000000","LAUNCH_DATE":"2021-11-13","APOAPSIS":"541.266"},{"MEAN_ANOMALY":"159.5870","PERIOD":"95.438","MEAN_MOTION_DOT":"0.00003705","OBJECT_ID":"2021-104AM","TLE_LINE1":"1 49443U 21104AM  22140.25001157  .00003705  00000-0  25080-3 0  9995","TLE_LINE2":"2 49443  53.2195 326.5549 0002052  35.3268 159.5870 15.08837227 30237","SITE":"AFETR","NORAD_CAT_ID":"49443","EPHEMERIS_TYPE":"0","DECAY_DATE":null,"RA_OF_ASC_NODE":"326.5549","PERIAPSIS":"538.334","CLASSIFICATION_TYPE":"U","REF_FRAME":"TEME","BSTAR":"0.00025080000000","ARG_OF_PERICENTER":"35.3268","OBJECT_NAME":"STARLINK-3136","REV_AT_EPOCH":"3023","MEAN_MOTION_DDOT":"0.0000000000000","OBJECT_TYPE":"PAYLOAD","COUNTRY_CODE":"US","LAUNCH_DATE":"2021-11-13","APOAPSIS":"541.173","MEAN_MOTION":"15.08837227","SEMIMAJOR_AXIS":"6917.889","MEAN_ELEMENT_THEORY":"SGP4","INCLINATION":"53.2195","EPOCH":"2022-05-20T06:00:00.999648","FILE":"3454111","ECCENTRICITY":"0.00020520","GP_ID":"203997936","TIME_SYSTEM":"UTC","CENTER_NAME":"EARTH","ELEMENT_SET_NO":"999","RCS_SIZE":"LARGE"},{"APOAPSIS":"541.271","LAUNCH_DATE":"2021-11-13","MEAN_MOTION_DDOT":"0.0000000000000","COUNTRY_CODE":"US","OBJECT_TYPE":"PAYLOAD","CENTER_NAME":"EARTH","TIME_SYSTEM":"UTC","RCS_SIZE":"LARGE","ELEMENT_SET_NO":"999","FILE":"3453812","EPOCH":"2022-05-19T22:00:00.999936","INCLINATION":"53.2176","MEAN_ELEMENT_THEORY":"SGP4","SEMIMAJOR_AXIS":"6917.922","MEAN_MOTION":"15.08826274","GP_ID":"203990268","ECCENTRICITY":"0.00021450","NORAD_CAT_ID":"49444","SITE":"AFETR","TLE_LINE1":"1 49444U 21104AN  22139.91667824  .00034415  00000-0  21707-2 0  9999","TLE_LINE2":"2 49444  53.2176 328.0590 0002145  39.6222  63.6838 15.08826274  1305","OBJECT_ID":"2021-104AN","EPHEMERIS_TYPE":"0","PERIOD":"95.438","MEAN_ANOMALY":"63.6838","MEAN_MOTION_DOT":"0.00034415","BSTAR":"0.00217070000000","ARG_OF_PERICENTER":"39.6222","REV_AT_EPOCH":"130","OBJECT_NAME":"STARLINK-3126","RA_OF_ASC_NODE":"328.0590","DECAY_DATE":null,"REF_FRAME":"TEME","CLASSIFICATION_TYPE":"U","PERIAPSIS":"538.303"},{"EPHEMERIS_TYPE":"0","SITE":"AFETR","NORAD_CAT_ID":"49445","TLE_LINE1":"1 49445U 21104AP  22139.91667824  .00037909  00000-0  23888-2 0  9993","TLE_LINE2":"2 49445  53.2181 338.0644 0002461  32.1307 356.1923 15.08814924  1300","OBJECT_ID":"2021-104AP","MEAN_MOTION_DOT":"0.00037909","PERIOD":"95.439","MEAN_ANOMALY":"356.1923","REV_AT_EPOCH":"130","OBJECT_NAME":"STARLINK-3122","BSTAR":"0.00238880000000","ARG_OF_PERICENTER":"32.1307","REF_FRAME":"TEME","CLASSIFICATION_TYPE":"U","PERIAPSIS":"538.120","RA_OF_ASC_NODE":"338.0644","DECAY_DATE":null,"LAUNCH_DATE":"2021-11-13","APOAPSIS":"541.525","COUNTRY_CODE":"US","OBJECT_TYPE":"PAYLOAD","MEAN_MOTION_DDOT":"0.0000000000000","RCS_SIZE":"LARGE","ELEMENT_SET_NO":"999","CENTER_NAME":"EARTH","TIME_SYSTEM":"UTC","GP_ID":"203988517","ECCENTRICITY":"0.00024610","FILE":"3453812","INCLINATION":"53.2181","EPOCH":"2022-05-19T22:00:00.999936","MEAN_ELEMENT_THEORY":"SGP4","SEMIMAJOR_AXIS":"6917.957","MEAN_MOTION":"15.08814924"},{"TLE_LINE1":"1 49446U 21104AQ  22139.91667824  .00039189  00000-0  24680-2 0  9997","TLE_LINE2":"2 49446  53.2177 328.0576 0002374  28.3221  94.9756 15.08821068  1302","SITE":"AFETR","NORAD_CAT_ID":"49446","OBJECT_ID":"2021-104AQ","EPHEMERIS_TYPE":"0","PERIOD":"95.439","MEAN_ANOMALY":"94.9756","MEAN_MOTION_DOT":"0.00039189","BSTAR":"0.00246800000000","ARG_OF_PERICENTER":"28.3221","REV_AT_EPOCH":"130","OBJECT_NAME":"STARLINK-3099","RA_OF_ASC_NODE":"328.0576","DECAY_DATE":null,"CLASSIFICATION_TYPE":"U","PERIAPSIS":"538.161","REF_FRAME":"TEME","LAUNCH_DATE":"2021-11-13","APOAPSIS":"541.446","MEAN_MOTION_DDOT":"0.0000000000000","COUNTRY_CODE":"US","OBJECT_TYPE":"PAYLOAD","TIME_SYSTEM":"UTC","CENTER_NAME":"EARTH","RCS_SIZE":"LARGE","ELEMENT_SET_NO":"999","INCLINATION":"53.2177","EPOCH":"2022-05-19T22:00:00.999936","FILE":"3453812","MEAN_MOTION":"15.08821068","SEMIMAJOR_AXIS":"6917.938","MEAN_ELEMENT_THEORY":"SGP4","ECCENTRICITY":"0.00023740","GP_ID":"203988767"},{"LAUNCH_DATE":"2021-11-13","APOAPSIS":"541.555","OBJECT_TYPE":"PAYLOAD","COUNTRY_CODE":"US","MEAN_MOTION_DDOT":"0.0000000000000","ELEMENT_SET_NO":"999","RCS_SIZE":"LARGE","TIME_SYSTEM":"UTC","CENTER_NAME":"EARTH","ECCENTRICITY":"0.00025310","GP_ID":"203990018","MEAN_MOTION":"15.08820929","MEAN_ELEMENT_THEORY":"SGP4","SEMIMAJOR_AXIS":"6917.939","EPOCH":"2022-05-19T22:00:00.999936","INCLINATION":"53.2173","FILE":"3453812","EPHEMERIS_TYPE":"0","OBJECT_ID":"2021-104AR","TLE_LINE2":"2 49447  53.2173 338.0710 0002531  29.1223  39.1959 15.08820929  1307","TLE_LINE1":"1 49447U 21104AR  22139.91667824  .00038755  00000-0  24410-2 0  9997","NORAD_CAT_ID":"49447","SITE":"AFETR","MEAN_MOTION_DOT":"0.00038755","MEAN_ANOMALY":"39.1959","PERIOD":"95.439","OBJECT_NAME":"STARLINK-3115","REV_AT_EPOCH":"130","BSTAR":"0.00244100000000","ARG_OF_PERICENTER":"29.1223","PERIAPSIS":"538.053","CLASSIFICATION_TYPE":"U","REF_FRAME":"TEME","DECAY_DATE":null,"RA_OF_ASC_NODE":"338.0710"},{"RA_OF_ASC_NODE":"338.0660","DECAY_DATE":null,"PERIAPSIS":"538.355","CLASSIFICATION_TYPE":"U","REF_FRAME":"TEME","BSTAR":"0.00240230000000","ARG_OF_PERICENTER":"34.5367","REV_AT_EPOCH":"130","OBJECT_NAME":"STARLINK-3097","PERIOD":"95.440","MEAN_ANOMALY":"333.7989","MEAN_MOTION_DOT":"0.00038119","TLE_LINE1":"1 49448U 21104AS  22139.91667824  .00038119  00000-0  24023-2 0  9992","TLE_LINE2":"2 49448  53.2165 338.0660 0002149  34.5367 333.7989 15.08808520  1306","NORAD_CAT_ID":"49448","SITE":"AFETR","OBJECT_ID":"2021-104AS","EPHEMERIS_TYPE":"0","INCLINATION":"53.2165","EPOCH":"2022-05-19T22:00:00.999936","FILE":"3453812","MEAN_MOTION":"15.08808520","SEMIMAJOR_AXIS":"6917.977","MEAN_ELEMENT_THEORY":"SGP4","ECCENTRICITY":"0.00021490","GP_ID":"203989769","TIME_SYSTEM":"UTC","CENTER_NAME":"EARTH","RCS_SIZE":"LARGE","ELEMENT_SET_NO":"999","MEAN_MOTION_DDOT":"0.0000000000000","COUNTRY_CODE":"US","OBJECT_TYPE":"PAYLOAD","APOAPSIS":"541.328","LAUNCH_DATE":"2021-11-13"},{"ARG_OF_PERICENTER":"34.1467","BSTAR":"0.00221200000000","OBJECT_NAME":"STARLINK-3137","REV_AT_EPOCH":"130","DECAY_DATE":null,"RA_OF_ASC_NODE":"338.0511","REF_FRAME":"TEME","CLASSIFICATION_TYPE":"U","PERIAPSIS":"538.144","OBJECT_ID":"2021-104AT","NORAD_CAT_ID":"49449","SITE":"AFETR","TLE_LINE2":"2 49449  53.2199 338.0511 0002383  34.1467  54.1705 15.08824689  1300","TLE_LINE1":"1 49449U 21104AT  22139.91667824  .00035078  00000-0  22120-2 0  9990","EPHEMERIS_TYPE":"0","MEAN_ANOMALY":"54.1705","PERIOD":"95.439","MEAN_MOTION_DOT":"0.00035078","CENTER_NAME":"EARTH","TIME_SYSTEM":"UTC","ELEMENT_SET_NO":"999","RCS_SIZE":"LARGE","SEMIMAJOR_AXIS":"6917.927","MEAN_ELEMENT_THEORY":"SGP4","MEAN_MOTION":"15.08824689","FILE":"3453812","INCLINATION":"53.2199","EPOCH":"2022-05-19T22:00:00.999936","GP_ID":"203989017","ECCENTRICITY":"0.00023830","LAUNCH_DATE":"2021-11-13","APOAPSIS":"541.441","MEAN_MOTION_DDOT":"0.0000000000000","OBJECT_TYPE":"PAYLOAD","COUNTRY_CODE":"US"}];
